[{"OBJECT_NAME":"STARLINK-1547","OBJECT_ID":"2020-062Y","EPOCH":"2026-03-10T00:00:02.999808","MEAN_MOTION":15.64219484,"ECCENTRICITY":0.00047669,"INCLINATION":53.037,"RA_OF_ASC_NODE":277.3047,"ARG_OF_PERICENTER":159.1471,"MEAN_ANOMALY":36.803,"EPHEMERIS_TYPE":0,"CLASSIFICATION_TYPE":"U","NORAD_CAT_ID":46347,"ELEMENT_SET_NO":999,"REV_AT_EPOCH":594,"BSTAR":0.0023378956,"MEAN_MOTION_DOT":0.00232884,"MEAN_MOTION_DDOT":0},{"OBJECT_NAME":"STARLINK-11295 [DTC]","OBJECT_ID":"2024-184E","EPOCH":"2026-03-09T17:20:43.576512","MEAN_MOTION":15.6966187,"ECCENTRICITY":0.00015231,"INCLINATION":53.1582,"RA_OF_ASC_NODE":236.0171,"ARG_OF_PERICENTER":73.5687,"MEAN_ANOMALY":286.5498,"EPHEMERIS_TYPE":0,"CLASSIFICATION_TYPE":"U","NORAD_CAT_ID":61536,"ELEMENT_SET_NO":999,"REV_AT_EPOCH":8042,"BSTAR":-1.8602581e-5,"MEAN_MOTION_DOT":-2.837e-5,"MEAN_MOTION_DDOT":0}]
